name,category,address,lat,lon
Centre Educatiu Thau,Centre,Av Esplugues 49,41.388,2.105
Ateneu  Sant Andreu,otro,Carrer de l'Abat Odó 71,41.432,2.185
Jardins d'Elvira Farreras Valentí,Jardins,C Manacor 17,41.407,2.143
Casal de Barri Font d'en Fargues,otro,C Pedrell 67,41.424,2.165
Associació Rambla de Catalunya,otro,Rambla de Catalunya 61,41.391,2.164
Fàbrica de Creació Graner,otro,C Jane Addams 14,41.362,2.136
Escola Mossèn Jacint Verdaguer,Escola,C Lleida 32,41.373,2.155
Centre Esportiu Municipal Putxet,Centre,C Marmellà 23,41.41,2.141
Universitat de Barcelona,otro,Gran Via de les Corts Catalanes 585,41.387,2.164
Funicular Vallvidrera  FGC,otro,Carrer de les Alberes 16,41.414,2.106
Funicular Tibidabo  Cuca de Llum,otro,Plaça del Doctor Andreu 1,41.416,2.131
Tramvia Blau TibidaboTMB,otro,Avinguda del Tibidabo 2,41.411,2.137
Sala El Molino,otro,Carrer de Vila i Vilà 99,41.375,2.167
Institut Nacional d'Educació Física de Catalunya *Barcelona,otro,Av Estadi 12,41.365,2.147
Col·legi Oficial de Metges de Barcelona,otro,Pg Bonanova 47,41.404,2.129
Velodrom Municipal d'Horta Miquel Poblet,otro,Pg Vall d'Hebron 185,41.437,2.15
Restaurant Can Travi Nou,Restaurant,C Jorge Manrique nan,41.431,2.15
Parròquia de la Santíssima Trinitat,Parròquia,C Turó de la Trinitat 30,41.45,2.19
Poble Espanyol de Barcelona,otro,Avinguda de Francesc Ferrer i Guàrdia 13,41.369,2.147
Casal Sant Jordi,otro,Pau Claris 81,41.389,2.171
Mercat Boqueria  Sant Josep,Mercat,Carrer la Rambla 89,41.382,2.172
Mercat Santa Caterina,Mercat,Av Francesc Cambó 16,41.386,2.178
Mercat Hostafrancs,Mercat,Carrer de la Creu Coberta 93,41.375,2.144
Casa Bonaventura Ferrer,otro,Pg Gràcia 113,41.397,2.158
Mercat Sants,Mercat,C Sant Jordi 6,41.375,2.134
Hospital del Mar,otro,Passeig Marítim de la Barceloneta  Oriol Bohigas 25,41.383,2.195
Club Natació Atlètic  Barceloneta,Club,Pl Mar 1,41.373,2.189
Centre Comercial Arenas de Barcelona,Centre,G.V. Corts Catalanes 373,41.376,2.15
Museu del Modernisme de Barcelona,Museu,C Balmes 48,41.389,2.163
Parròquia de la Mare de Déu de la Mercè i Sant Miquel Arcàngel  Basílica,Parròquia,Pl Mercè 1,41.379,2.18
Institut Français de Barcelone,otro,C Moià 8,41.395,2.152
Jardins de Magalí,Jardins,C Vallespir 194,41.385,2.134
Casa Amatller,otro,Pg Gràcia 41,41.392,2.165
Barcelona  Casa Vídua Marfà,otro,Pg Gràcia 66,41.393,2.164
El Born i la Ribera,destacat,Pg Born 30,41.385,2.183
La Barceloneta,destacat,C Baluard 50,41.38,2.189
Sants i Hostafrancs,otro,C Creu Coberta 100,41.375,2.143
La Vila Olímpica,otro,C Salvador Espriu 43,41.389,2.197
El Fòrum,otro,Pl Fòrum 2,41.411,2.222
Federació Eix Comercial SantsLes Corts,otro,Carrer de Melcior de Palau 77,41.38,2.134
Parc de les Rieres d'Horta,Parc,Av Estatut de Catalunya 21,41.431,2.154
Torre del Rellotge,otro,Pl Bonet i Muixí 3,41.374,2.137
Palau de la Premsa,Palau,Av Rius i Taulet 5,41.372,2.154
La Plaça del Sortidor,otro,Pl Sortidor 4,41.373,2.162
Finca Sansalvador,otro,Pg Mare de Déu del Coll 79,41.419,2.148
Mercat de les Flors Centre de les Arts de Moviment,Centre,Lleida 59,41.371,2.157
Casa Rosa Alemany,otro,Av República Argentina 6,41.407,2.149
Casa Serès,otro,C Verdi 39,41.404,2.157
Conjunt de Cases al Carrer Francisco Giner,otro,C Francisco Giner 16,41.399,2.159
Cases Manuel Raventós,otro,Rbla Prat 13,41.401,2.152
Edifici J. Artigas,otro,C Martínez de la Rosa 34,41.4,2.159
Habitatge Classicista Providència 79,otro,C Providència 79,41.408,2.159
Restaurant Casa Tejada,Restaurant,C Tenor Viñas 3,41.395,2.142
Club Esportiu Mediterrani *Instal·lació Josep Vallès,Club,C Begur 44,41.373,2.13
Associació Cultural El Raval El Lokal,destacat,C Cera 1,41.379,2.167
World Trade Center,otro,Moll Barcelona 1,41.371,2.182
Servei d'Esports de la Universitat de Barcelona,otro,Av Diagonal 695,41.381,2.105
Casa Cama i Escurra,otro,C Gran de Gràcia 15,41.398,2.157
Casa Claudi Alsina,otro,Plaça de Lesseps 10,41.407,2.151
Casa Eudald Obradors,otro,Av República Argentina 90,41.411,2.146
Casa Gaspar Galí,otro,C Montseny 45,41.403,2.156
Casa Manuel Colchero,otro,C Camèlies 34,41.412,2.16
Casa Miquel Cal Millàs,otro,C Vallfogona 18,41.403,2.158
Casa Pere Jaqués,otro,C Olot 2,41.413,2.152
Casa Ramos,otro,Pl Lesseps 30,41.406,2.15
Casa de les Altures,otro,Rda Guinardó 49,41.413,2.166
Teatre Grec,otro,Pg Santa Madrona 36,41.368,2.158
Parròquia de Santa Maria de Gràcia,Parròquia,C Gràcia 3,41.398,2.158
Club Tennis La Salut,Club,Carrer de la Mare de Déu de la Salut 75,41.412,2.158
Parc de Can Rigal,Parc,Av Albert Bastardas 23,41.379,2.108
Torre d'Ignacio Portabella,otro,Av Tibidabo 27,41.413,2.135
El Jardí Vertical,otro,C Berlín 107,41.385,2.142
Casa Hurtado,otro,Av Pedralbes 46,41.392,2.116
La Gran Via de Carles III,otro,G.V. Carles III 60,41.384,2.128
La plaça de la Concòrdia,otro,Pl Concòrdia nan,41.387,2.132
La Porta Sud de la Finca Güell,otro,C Lluís Solé i Sabarís 1,41.385,2.119
Antic Dispensari Antituberculós,otro,C Torres i Amat 8,41.384,2.165
Jardinets de Salvador Espriu,otro,Pg Gràcia 118,41.397,2.159
Ca l'Estruc Convent de les Germanes de l'Assumpció,otro,C Pons i Gallarza 30,41.436,2.188
Botiga Casa Rusca,otro,C Gran de Sant Andreu 135,41.432,2.189
La Mina Grott,otro,Camí del Camasec 22,41.415,2.098
Cooperativa La Guardiola Familiar,otro,C Borriana 54,41.431,2.192
Pavelló de Ràdio Barcelona al Parc d'Atraccions del Tibidabo,Parc,Carretera de Vallvidrera al Tibidabo 101,41.424,2.119
Villa Esperanza,otro,Ptge Isabel 8,41.414,2.146
Colònia Bausili,otro,C Colònia Bausili 3,41.353,2.144
Carrer Avió Plus Ultra,otro,C Avió Plus Ultra 1,41.4,2.122
Bar Colòmbia,otro,Rbla Fabra i Puig 1,41.43,2.19
El camp de la Creu,otro,Pl Carme 1,41.389,2.14
Sant Joan de Dalt,otro,Pg Sant Joan 150,41.402,2.166
El pont de Mühlberg,otro,C Mühlberg 100,41.419,2.162
Can Carreras,otro,Parc Central de Nou Barris 0,41.437,2.168
El passatge de l'Esperança,otro,Ptge Esperança 5,41.429,2.177
Casa de la Lactància,otro,G.V. Corts Catalanes 475,41.38,2.155
Casal de Barri Can Portabella,otro,C Virgili 18,41.429,2.194
Forn de Pa Roura Vila,otro,C Calaf 15,41.397,2.144
Restaurant Dos Torres,Restaurant,Via Augusta 300,41.398,2.129
Eix Comercial del Poblenou,otro,C Pallars 224,41.403,2.2
Las Golondrinas  Sirenas SA,otro,Moll Drassanes 1,41.375,2.178
Casa Elisa Bremon d'Espina,otro,C Gran de Gràcia 61,41.4,2.156
Casa Eloy Detouche,otro,C Pare Laínez 17,41.407,2.165
Casa F. Homet,otro,C Santa Magdalena 1,41.404,2.152
Casa Feliu Iglesies,otro,C Gran de Gràcia 135,41.402,2.153
Casa Gustà,otro,C Ca l'Alegre de Dalt 72,41.41,2.16
Santa Creu d'Olorda,otro,Ctra Santa Creu Olorda a Sarrià 417,41.416,2.059
Pont de Calatrava Bac de Roda  Felip II,otro,Carrer de Felip II 2,41.416,2.192
Can Mora,otro,C Portell 11,41.418,2.151
Can Muntaner de Dalt,otro,C Olot 1,41.414,2.153
Can Trilla,otro,C Gran de Gràcia 177,41.404,2.152
El Campus Raval  UB,otro,C Montalegre 6,41.384,2.167
Carrer Pons i Gallarza,otro,C Bascònia 45,41.436,2.187
Carrer Puerto Príncipe,otro,C Puerto Príncipe 44,41.423,2.181
La Plaça Santa Madrona,otro,Pl Santa Madrona 3,41.373,2.156
Camisseria Bonet,otro,C Rambla 72,41.381,2.174
Casa Doctor Genové,otro,C Rambla 77,41.381,2.173
Casa Domènech i Estapà,otro,C València 241,41.392,2.163
Ateneu de Fabricació Digital de Les Corts,otro,Carrer d'Evarist Arnús 59,41.384,2.136
Seu de la Secció 10 de les Patrulles de Control Guerra Civil,otro,C Gran de Sant Andreu 52,41.429,2.19
Pis  Museu Habitatge 1/11,Museu,Passeig de Torras i Bages 91,41.441,2.19
Àntic Edifici de Catalana de Gas i Electricitat SA,otro,Av Portal de l'Àngel 20,41.386,2.173
Sala Lliure de Gràcia,otro,C Montseny 47,41.403,2.156
Viaducte de Vallcarca,otro,C Gomis 2,41.412,2.143
Casa Muntadas,otro,Av Tibidabo 48,41.415,2.133
Fossar de les Moreres,otro,Pl Fossar de les Moreres 1,41.384,2.182
Edifici Alhambra,otro,C Berlinès 5,41.404,2.14
El Farró a través del carrer Saragossa,otro,C Saragossa 1,41.401,2.151
La plaça de Sarrià,otro,Pl Sarrià nan,41.4,2.122
La Torre d'Aigües de Josep Amargós,otro,Carretera de Vallvidrera al Tibidabo 107,41.423,2.119
Colònia Busquets,otro,Ctra Església 2,41.414,2.105
Fàbrica Sanchís,otro,Pg Enric Sanchis 21,41.435,2.205
Museu Egipci de Barcelona,Museu,Carrer de València 284,41.394,2.165
Parc de la Ciutadella,Parc,Passeig de Picasso 21,41.386,2.185
Jardins de Ramon Margalef i López,Jardins,Av Estadi 42,41.366,2.153
Parc del Castell de l'Oreneta,Parc,C Montevideo 45,41.399,2.112
Turó Park  Parc del Poeta Eduard Marquina,Parc,Av Pau Casals 19,41.394,2.142
Centre Educatiu Jesús i Maria *Passeig Sant Gervasi,Centre,Pg Sant Gervasi 15,41.41,2.132
Temple Expiatori de la Sagrada Família  Basílica,destacat,Carrer de Provença 450,41.404,2.174
Carrer Major de Sarrià,otro,C Major de Sarrià 1,41.396,2.125
Casa Fornells,otro,Av Tibidabo 35,41.414,2.134
El barri de la Mercè,otro,C Torrent de les Roses 1,41.389,2.106
Mercat Sant Andreu,Mercat,Plaça del Mercadal 41,41.435,2.188
Centre Excursionista Els Blaus,Centre,Cornet i Mas 15,41.398,2.124
Casa Marsans  Alberg Mare de Déu de Montserrat  AJ000084,otro,Pg Mare de Déu del Coll 41,41.416,2.147
Platja de Sant Sebastià,Platja,Passeig Marítim de la Barceloneta  Oriol Bohigas 2,41.374,2.19
Platja de la Nova Icària,Platja,Pg Marítim de Nova Icària 60,41.391,2.203
El Parc del Fòrum,Parc,Pl Fòrum 1,41.411,2.222
Casa Vicens,otro,C Carolines 18,41.404,2.151
Palau Güell,Palau,Carrer Nou de la Rambla 3,41.379,2.174
Edifici Gas Natural,otro,Pl Gas 1,41.383,2.19
Tinta Invisible Edicions,otro,C Lleó 6,41.382,2.165
Restaurant Casa Trampa,Restaurant,Pl Vallvidrera 3,41.413,2.105
Museu de la Xocolata,Museu,Carrer del Comerç 36,41.387,2.182
Escola Josep Maria Jujol,Escola,C Riera de Sant Miquel 39,41.398,2.156
Centre Cívic Casinet d'Hostafrancs,Centre,Carrer del Rector Triadó 53,41.378,2.143
Portal Casa Miralles,otro,Pg Manuel Girona 55,41.392,2.127
Disseny Hub Barcelona,otro,Plaça de les Glòries Catalanes 37,41.403,2.188
Masia de Can Baró,otro,Pl Can Baró 1,41.417,2.162
Pla de Montbau,otro,Pla Montbau 6,41.431,2.143
Cases Francesc Farreras,otro,G.V. Corts Catalanes 536,41.383,2.16
Casa Pomar,otro,C Girona 86,41.396,2.17
Parròquia de Sant Ramon Nonat,Parròquia,Av Sant Ramon Nonat 1,41.376,2.117
Base Nàutica Municipal de la Mar Bella,otro,Pg Marítim del Bogatell 102,41.397,2.21
Institut Vila de Gràcia,otro,C Riera de Sant Miquel 58,41.399,2.155
Pavelló de la República,otro,C Jorge Manrique 9,41.431,2.151
Alberg InOut  AJ000427,otro,C Major del Rectoret 2,41.422,2.102
Institut del Teatre,otro,Pl Margarida Xirgu 1,41.371,2.157
Edifici Patronat Ribas,otro,Pg Vall d'Hebron 93,41.423,2.141
Monument a Cristòfol Colom,otro,Plaça del Portal de la Pau 1,41.376,2.176
Escultura Josep Anselm Clavé,otro,Pg Sant Joan 198,41.404,2.164
Facultat de Dret  UB,otro,Av Diagonal 684,41.387,2.121
Carrer Grau,otro,C Grau 47,41.439,2.188
Carrer Manigua,otro,C Garcilaso 200,41.424,2.18
Carrer Matanzas,otro,C Matanzas 40,41.423,2.182
Menjadors populars del carrer Gran Sant Andreu Guerra Civil,otro,C Gran de Sant Andreu 176,41.433,2.189
Centre Cívic Tomasa Cuevas  Les Corts,Centre,Carrer de Dolors Masferrer i Bosch 33,41.385,2.128
Fàbrica de Creació Hangar,otro,C Emília Coranty 8,41.409,2.199
Museu de Ciències Naturals de Barcelona,Museu,Plaça de Leonardo da Vinci 4,41.411,2.22
Centre Comercial Westfield Glòries,Centre,Av Diagonal 208,41.405,2.193
Fundació Barcelona Media  Centre d'Innovació,Centre,Av Diagonal 177,41.404,2.194
Jardins de la Tamarita,Jardins,Pg Sant Gervasi 47,41.411,2.135
El Clot,otro,Pl Font i Sagué 2,41.408,2.188
Facultat de Psicologia i Ciències de l'Educació i de l'Esport Blanquerna  URL,otro,Císter 34,41.412,2.133
El nucli de Santa Eulàlia de Vilapicina,otro,C Pere d'Artés 1,41.431,2.173
Can Peguera,otro,Pl Sant Francesc Xavier 12,41.434,2.165
La vila de Gràcia,otro,Pl Virreina 2,41.405,2.158
Ca l'Aranyó,otro,C Roc Boronat 150,41.404,2.193
El barri de la Clota,otro,C Capcir 2,41.427,2.151
Casa Almirall,otro,C Joaquín Costa 33,41.382,2.166
Plaça de les Dones del 36,otro,Pl Dones del 36 1,41.405,2.154
Hort Urbà Masia Can Mestres *Tancat,otro,Camí Can Clos 1,41.36,2.145
Facultat de Comunicació i Relacions Internacionals Blanquerna  URL,otro,Plaça de Joan Coromines 1,41.384,2.166
Torre Glòries,otro,Av Diagonal 209,41.403,2.19
Parc del Poblenou,Parc,Av Litoral 59,41.397,2.207
Centre Educatiu Vedruna Gràcia Barcelona,Centre,C Gran de Gràcia 234,41.405,2.151
Biblioteca Montserrat Abelló,otro,Carrer dels Comtes de Belllloc 192,41.384,2.135
Museu Frederic Marès,Museu,Plaça de Sant Iu 5,41.384,2.177
Estadi Olímpic de Montjuïc Lluís Companys,destacat,Passeig Olímpic 17,41.365,2.156
Spotify Camp Nou * Tancat per remodelació,otro,C Aristides Maillol 12,41.381,2.123
Parc de la Trinitat,Parc,Pg Santa Coloma 60,41.449,2.196
Federació de Comerciants de Barna Centre,Centre,Carrer del Paradís 10,41.383,2.177
Platja de la Mar Bella,Platja,Passeig Marítim de la Mar Bella 104,41.399,2.212
Ca n'Andalet,otro,Passatge d'Andalet 11,41.427,2.154
CosmoCaixa Barcelona,otro,Carrer d'Isaac Newton 26,41.413,2.131
Associació de Comerciants del Carrer Gran de Gràcia,otro,Carrer Gran de Gràcia 86,41.4,2.155
Museu Reial Monestir de Santa Maria de Pedralbes,Museu,Baixada del Monestir 9,41.396,2.112
Reial Club de Tennis Barcelona  1899,Club,C Bosch i Gimpera 5,41.394,2.118
Memorial de les Dones Represaliades a la Presó de Dones de les Corts,otro,Carrer d'Europa 13,41.387,2.129
Hospital de la Santa Creu i Sant Pau,otro,C Sant Quintí 89,41.415,2.174
Centre Cívic La Sedeta,Centre,Carrer de Sicília 321,41.406,2.168
Parròquia de l'Immaculat Cor de Maria,Parròquia,C Sant Antoni Maria Claret 45,41.406,2.167
Centre Cívic Guinardó,Centre,Ronda del Guinardó 113,41.416,2.173
Jardins Mestre Balcells,Jardins,Carrer de Sant Salvador 63,41.408,2.155
Mercat Guineueta,Mercat,Passeig de Valldaura 186,41.439,2.17
Centre Cívic Casa del Rellotge,Centre,Passeig de la Zona Franca 116,41.358,2.141
Monument Arc de Triomf de Barcelona,otro,Pg Lluís Companys 15,41.391,2.181
Torre Bellesguard  Gaudí  Casa Figueres,otro,C Bellesguard 16,41.409,2.127
Torre de Collserola,otro,Ctra Vallvidrera Tibidabo 8,41.416,2.112
Mercat Barceloneta,Mercat,Plaça del Poeta Boscà 1,41.38,2.189
Mercat Ninot,Mercat,Carrer de Mallorca 133,41.388,2.154
Parròquia de Santa Teresa de l'Infant Jesús,Parròquia,Via Augusta 68,41.401,2.152
Casa Francesc Cama,otro,C Gran de Gràcia 77,41.4,2.155
Casa Madurell,otro,C Torrijos 14,41.403,2.16
Jardins del  Baix Guinardó,Jardins,C Marina 372,41.41,2.169
Museu de Carruatges del Foment,Museu,Pl Josep Pallach 8,41.434,2.15
Parc de Joan Miró,Parc,Carrer d'Aragó 2,41.379,2.147
Parròquia de la Mare de Déu del Coll,Parròquia,C Santuari 30,41.42,2.151
Edifici d'habitatges Gran de Gràcia 67,otro,C Gran de Gràcia 67,41.4,2.155
Farmàcia de Bolós Giralt,otro,Rbla Catalunya 77,41.392,2.162
Antiga Fàbrica d'Estampació Tèxtil Can Ricart,otro,C Emília Coranty 33,41.409,2.198
Centre Esportiu Municipal Can Caralleu,Centre,Carrer dels Esports 2,41.401,2.111
Vall d'Hebron Barcelona Hospital Campus,otro,Pg Vall d'Hebron 119,41.428,2.143
Casa Terradas  Casa de les Punxes,otro,Av Diagonal 420,41.398,2.164
El Polvorí i Cos de Guàrdia,otro,C Segura 34,41.365,2.143
Parc Central de Nou Barris,Parc,Pl Major de Nou Barris 1,41.437,2.171
Carrer Pinar del Rio,otro,C Matanzas 30,41.422,2.182
Parròquia de Sant Vicenç de Sarrià,Parròquia,C Rector Voltà 5,41.399,2.121
Residència Militar d'Estudiants Mateo Calabro,otro,Capità Arenas 52,41.393,2.125
Institut Químic de Sarrià  Campus Sarrià  IQS,otro,Via Augusta 390,41.404,2.119
Seu del Districte de SantsMontjuïc,destacat,Carrer de la Creu Coberta 104,41.375,2.142
Fundació Orfeó Gracienc,otro,C Astúries 83,41.405,2.156
Parròquia de Sant Joan de Gràcia,Parròquia,C Santa Creu 2,41.405,2.157
Educa +,otro,C Sant Quintí 12,41.413,2.18
Seu del Districte de SarriàSant Gervasi,otro,Plaça del Consell de la Vila 7,41.399,2.121
Palau de Congressos *Pavelló 5,Palau,Av Reina Maria Cristina 1,41.372,2.152
Centre Educatiu CETT,Centre,Av Can Marcet 36,41.435,2.148
Universitat Nacional d'Educació a Distància *Barcelona,otro,Av Rio de Janeiro 56,41.436,2.18
Seu del Districte de Nou Barris,otro,Pl Major de Nou Barris 1,41.437,2.171
Parròquia de la Mare de Déu de Lourdes,Parròquia,C Font Honrada 33,41.373,2.156
Círculo Ecuestre,otro,C Balmes 169,41.396,2.154
Museu,Museu,Avinguda de Miramar 1,41.368,2.16
Museu de Pintura Contemporània Can Framis,Museu,Carrer de Roc Boronat 116,41.403,2.195
Parròquia de Sant Pere de les Puel·les,Parròquia,Pl Sant Pere nan,41.389,2.179
Escola Superior d'Administració i Direcció d'Empreses  URL,Escola,Av Pedralbes 60,41.394,2.115
Jardins del Palau de Pedralbes,Jardins,Av Diagonal 686,41.387,2.118
Casa Lamadrid,otro,Girona 113,41.397,2.168
Casa Garriga Nogués,otro,Diputació 250,41.389,2.165
Centre Esportiu Municipal Piscines Bernat Picornell,Centre,Av Estadi 30,41.366,2.151
TAMAIA Viure Sense Violencia S.C.C.L.,otro,C Ripoll 25,41.386,2.175
Roca Barcelona Gallery,otro,C Joan Güell 211,41.387,2.129
Platja del Bogatell,Platja,Pg Marítim del Bogatell 80,41.395,2.207
Casal d'Entitats Mas Guinardó,otro,Plaça de Salvador Riera 2,41.418,2.174
Associació de Comerciants i Professionals Barnavasi,otro,C Septimània 31,41.405,2.148
Forn de Pa de Can Tur,otro,Virgili 74,41.432,2.193
Museu Olímpic i de l'Esport Joan Antoni Samaranch de Barcelona,Museu,Avinguda de l'Estadi 60,41.366,2.157
Museu,Museu,Carrer d'Aragó 255,41.392,2.164
Escultura David i Goliat Homenatge a les Brigades Internacionals,otro,Rbla Carmel 46,41.425,2.158
Telefèric de Barcelona,otro,Pg Joan Borbó C Barcelona 88,41.373,2.188
Jardins de Can Sentmenat,Jardins,C Can Caralleu 6,41.403,2.115
Parc del Laberint d'Horta,Parc,Passeig dels Castanyers 1,41.438,2.148
Parc del Guinardó,Parc,Garriga i Roca 1,41.419,2.17
Parc del Turó de la Peira,Parc,Passeig de Fabra i Puig 396,41.433,2.163
Centre Cívic Can Castelló,Centre,Carrer de Castelló 1,41.399,2.14
Jardins de Vil·la Amèlia,Jardins,Carrer d'Eduardo Conde 22,41.394,2.121
Park Güell,otro,Carrer d'Olot 7,41.414,2.153
Universitat Oberta de Catalunya,otro,Rambla del Poblenou 154,41.406,2.194
MUHBA Museu d'Història de Barcelona  Casa de l'Aigua,Museu,Carretera de Ribes 103,41.455,2.19
Centre Municipal de Cultura Popular de Sant Andreu,Centre,C Arquímedes 30,41.441,2.188
Centre Cívic Casa Golferichs,Centre,Gran Via de les Corts Catalanes 491,41.381,2.156
Museu Nacional d'Art de Catalunya,Museu,C Mirador Palau Nacional 6,41.369,2.153
El Campus Mundet  UB,otro,Pg Vall d'Hebron 173,41.436,2.147
La llera del riu Besòs,otro,Pl Turó de la Trinitat 1,41.455,2.191
Reial Acadèmia de Ciències i Arts de Barcelona,otro,C la Rambla 115,41.384,2.171
El Gòtic,destacat,C Paradís 1,41.383,2.177
El Poblenou,otro,C Pallars 221,41.402,2.199
Sant Andreu,otro,Pl Comerç 3,41.435,2.19
El nucli antic d'Horta,otro,C Fulton 15,41.43,2.162
La plaça de Lesseps,otro,Pl Lesseps 18,41.408,2.151
El Campus Ciutadella,otro,C Ramon Trias Fargas 25,41.39,2.191
Parc de la Pegaso,Parc,C Sagrera 179,41.427,2.191
Cases Josefa Villanueva,otro,C Roger de Llúria 80,41.395,2.167
Cristalleries Planell,otro,C Doctor Ibáñez 38,41.387,2.132
Casa Queralt,otro,C Pineda 12,41.419,2.148
Espai Mescladís,otro,C Carders 35,41.387,2.18
Font Pública,otro,Trav Gràcia 126,41.4,2.156
Centre Comercial Maremàgnum,Centre,Moll Espanya 5,41.376,2.183
Centre Cívic Can Deu,Centre,Plaça de la Concòrdia 13,41.387,2.133
Parc de l'Espanya Industrial,Parc,Carrer de Muntadas 1,41.377,2.14
Seu del Districte de Sant Andreu,otro,Plaça d'Orfila 1,41.436,2.191
Santa Església Catedral Basílica de Barcelona,otro,Pla Seu 3,41.384,2.176
La plaça de John Lennon,otro,Pl John Lennon nan,41.403,2.162
La plaça de Nicolás Salmerón,otro,Pla Nicolás Salmerón nan,41.398,2.157
La Pedrera Romana,destacat,C Ferrocarrils Catalans 4,41.357,2.146
Torre de l'Aigua,otro,C Santa Àgata 6,41.404,2.152
La Rambla del Raval,destacat,Rbla Raval 12,41.379,2.169
Xemeneia de Can Galta Cremat,otro,C Arquímedes 30,41.441,2.188
Les Carasses,otro,Pg Torras i Bages 108,41.441,2.191
Xemeneia de l'antiga Fábrica La Porcelana,otro,Pl Joan Corrades 1,41.373,2.145
La plaça del Raspall,otro,Pl Raspall nan,41.401,2.161
La Plaça del Setge de 1714,otro,Pl Setge de 1714 nan,41.374,2.161
Casa Sant Felip Neri,otro,C Nena Casas 37,41.396,2.131
El barri Plus Ultra,otro,C Aviador Ruiz de Alda 28,41.361,2.141
Antiga Biblioteca Pública de Sant Andreu de Palomar,otro,C Santa Marta 12,41.437,2.191
L'Aqüeducte Palombarum,otro,C Fernando Pessoa 1,41.438,2.193
Antic Monòlit Dedicat a la Legión Condor,otro,Pl Reina Maria Cristina 1,41.389,2.127
Cansaladeria Puig,otro,C Gran de Sant Andreu 147,41.432,2.189
L'antic Putxet. Els carrers Manacor Cadis i Putxet,otro,C Putxet 1,41.404,2.142
Passatge de Sant Felip,otro,Ptge Sant Felip 1,41.403,2.147
La plaça Molina,otro,Pl Molina 1,41.401,2.147
Parc Esportiu de Can Dragó,Parc,C Rosselló i Porcel 7,41.437,2.183
Torre de Sant Jordi,otro,C Sant Eudald 11,41.414,2.146
Villa Conchita o Casa dels Metges,otro,Pg Mare de Déu del Coll 81,41.419,2.148
Carrer Sant Gervasi de Cassoles,otro,C Sant Gervasi de Cassoles 1,41.404,2.14
Teatre Nacional de Catalunya,otro,Plaça de les Arts 1,41.4,2.186
Jardins de Joan Brossa,Jardins,Plaça de Dante 9999,41.369,2.165
Castell de Montjuïc,destacat,Carretera de Montjuïc 66,41.364,2.167
Jardins Laribal,Jardins,Pg Santa Madrona 2,41.368,2.158
Casernes d'Artilleria  de Sant Andreu,otro,Pg Torras i Bages 141,41.444,2.191
L'Estació dels FGC de Sarrià,otro,C Cardenal Sentmenat 43,41.398,2.125
Mercat Sarrià,Mercat,Pg Reina Elisenda Montcada 8,41.4,2.121
Mercat Abaceria Central,Mercat,Pg Sant Joan 181,41.403,2.164
Cementiri Sant Gervasi,Cementiri,Camí del Cementiri de Sant Gervasi 4,41.411,2.127
Cementiri d'Horta,Cementiri,Plaça del Cementiri d'Horta 9,41.44,2.156
Escultura Fray Pedro Ponce de León,otro,Pg Sant Joan 210,41.404,2.163
Casa Martí  Els Quatre Gats,otro,Montsió 3,41.386,2.174
Jardins,Jardins,G.V. Corts Catalanes 585,41.387,2.164
Jardins Plaça de Can Fabra,Jardins,Carrer del Segre 24,41.435,2.192
L'avinguda del Tibidabo,destacat,Av Tibidabo 4,41.411,2.137
El Passeig de Gràcia,otro,Passeig de Gràcia 80,41.394,2.163
Torre de Santa Caterina,otro,C Panamà 21,41.395,2.106
La Previsió Obrera,otro,C Doctor Balari i Jovany 13,41.435,2.191
Refugi Antiaeri de la Sagrera,otro,C Berenguer de Palou 64,41.424,2.192
Carrer Campo Florido,otro,C Campo Florido 9,41.421,2.182
Carrer Coroleu,otro,C Coroleu 42,41.433,2.187
Pastisseria Escribà *La Rambla,otro,C la Rambla 83,41.382,2.173
Hotel Peninsular  HB003154,otro,C Sant Pau 34,41.38,2.173
Mercat Clot,Mercat,Pl Mercat 26,41.408,2.189
Mercat Poblenou  Unió,Mercat,Pl Unió 25,41.401,2.205
Club Natació Barcelona,Club,Pg Joan Borbó C Barcelona 93,41.371,2.188
Torre Castanyer,otro,Pg Sant Gervasi 5,41.408,2.134
El passatge de Xile,otro,Ptge Xile 1,41.377,2.116
Els Jardins d'Eusebi Güell,Jardins,Pl Eusebi Güell nan,41.39,2.114
Centre Educatiu Impulsem,Centre,C Tàpies 6,41.377,2.171
Ateneu Barcelonès,otro,Carrer de la Canuda 6,41.385,2.172
Jardins del Turó del Putxet,Jardins,C Manacor 9,41.408,2.143
Parc de Monterols,Parc,Carrer de Muntaner 450,41.402,2.14
Parròquia de Santa Madrona,Parròquia,C Tapioles 10,41.374,2.165
Masia Ca l'Armera,otro,C Cardenal Tedeschini 32,41.426,2.183
Centre Cívic Vil·la Florida,Centre,Carrer de Muntaner 544,41.405,2.135
Fundació Suñol,otro,Carrer de Mejía Lequerica 14,41.383,2.126
Cementiri Sant Andreu,Cementiri,Carrer dels Garrofers 35,41.437,2.179
Gerència Urbanística Port Vell de l'Autoritat Portuària de Barcelona,otro,C Josep Anselm Clavé 27,41.378,2.178
Casa Castellet,otro,C Torrijos 26,41.403,2.159
Farmàcia Clapés Viñas,otro,C Gran de Sant Andreu 211,41.434,2.189
Casa Concepció i Casa Comelles,otro,C Astúries 26,41.403,2.154
Casa Cortina,otro,Av República Argentina 82,41.41,2.146
Casa Enric Cera,otro,C Or 38,41.405,2.157
Casa Girona i Cuyàs,otro,C Gran de Gràcia 6,41.398,2.158
Casa Joan Matas,otro,C Francisco Giner 32,41.399,2.159
Fabra i Coats  Fàbrica de Creació,otro,C Sant Adrià 20,41.434,2.191
Casa José de Ugarte,otro,C Santa Perpètua 15,41.408,2.152
Escola Business Engineering School  la Salle,Escola,C Lluçanès 41,41.409,2.131
Museu del Perfum  Fundació Planas Giralt,Museu,Pg Gràcia 39,41.392,2.165
Associació d'Emprenedors del Clot  Eix Clot,otro,Carrer de Sant Antoni Maria Claret 358,41.416,2.181
Unió de Botiguers del Cor d'Horta,otro,Carrer de Santes Creus 8,41.43,2.162
Cases Blanques,otro,C Vayreda 24,41.431,2.141
Refugi Antiaeri de Can Peguera,otro,C Cornudella 45,41.434,2.165
Can Tusquets,otro,Av Santuari St Josep Muntanya 1,41.41,2.154
Casa Agustí Trulla,otro,C Berga 22,41.401,2.153
Biblioteca Collserola  Josep Miracle,otro,Carrer d'Elisa Moragas i Badia 16,41.415,2.103
Casa Víctor Conill,otro,C Gran de Gràcia 1,41.398,2.157
Cases Leandre Vidal,otro,C Fraternitat 35,41.401,2.16
Edifici Puiggròs,otro,C Martínez de la Rosa 27,41.4,2.159
Centre Cívic Vallvidrera Vázquez Montalbán,Centre,Carrer d'Elisa Moragas i Badia 16,41.415,2.103
Escola Superior de Disseny i d'Art Llotja,Escola,C Ciutat de Balaguer 17,41.403,2.136
Parc de Can Sabaté,Parc,C Mineria 16,41.364,2.138
Casa Faiol  Casa de la Papallona,otro,Llança 20,41.377,2.15
Jardins del Palau Robert,Jardins,Passeig de Gràcia 107,41.396,2.16
Palau de la Música Catalana,Palau,C Palau de la Música 2,41.387,2.175
Museu Palmero Arte,Museu,Judea 2,41.425,2.14
Edifici La Rotonda,otro,Av Tibidabo 2,41.411,2.137
EINA  Escola de Disseny i Art,Escola,Pg Santa Eulàlia 25,41.403,2.114
Casa dels Ossos,otro,Av Diagonal 423,41.395,2.153
Centre Municipal de Vela,Centre,Moll Gregal 33,41.388,2.202
Escola Lluís Vives,Escola,C Canalejas 107,41.372,2.128
Parc Carmel,Parc,Ctra Carmel 9999,41.415,2.155
Premsa de Vi de Can Xandri,otro,Plaça d'en Xandri 3,41.438,2.185
La plaça de les Glòries Catalanes,otro,Pl Glòries Catalanes 36,41.403,2.187
Casa Lleó Morera,otro,Pg Gràcia 35,41.391,2.165
Jardins de les Tres Xemeneies,Jardins,Av Paral.lel 49,41.374,2.172
Parc de la Font Florida,Parc,G.V. Corts Catalanes 196,41.369,2.141
Zona de Banys,otro,Plaça del Fòrum 1,41.411,2.222
Escultura Mistos,otro,Jorge Manrique 9,41.431,2.151
Parc de la Creueta del Coll,Parc,Pg Mare de Déu del Coll 77,41.419,2.146
Fira Barcelona,otro,Avinguda de la Reina Maria Cristina 2,41.373,2.15
La plaça d'Orfila,otro,Pl Orfila 2,41.436,2.191
El Tibidabo,destacat,Ctra Observatori Fabra 25,41.419,2.123
Bar Musical London Bar,otro,C Nou de la Rambla 34,41.378,2.173
Font Màgica  Fonts de Montjuïc *Aturada degut a la situació d'alerta per sequera,destacat,Plaça de Carles Buïgas 1,41.37,2.154
La Maquinista Terrestre i Marítima,otro,Pl Pompeu Gener 1,41.382,2.191
Unió de Cooperatives per a la Fabricació de Pastes per a Sopa,otro,C Aurora 11,41.379,2.168
Casa Sarriera,otro,C Palma de Sant Just 8,41.382,2.179
Bibiblioteca Rector Gabriel Ferraté,otro,Jordi Girona 1,41.388,2.115
Conservatori Municipal de Música de Barcelona,otro,C Bruc 110,41.396,2.168
Teatro de los Sentidos,otro,Camí Polvorí 1,41.364,2.143
Cementiri Sant Genís,Cementiri,Saldes 3,41.428,2.137
Cooperativa Obrera Popular Segle XX,otro,C Atlàntida 1,41.382,2.189
L'Aquàrium de Barcelona  Aspro Parks,otro,Moll Espanya 5,41.377,2.184
Religioses de la Mare de Déu de la Mercè,otro,Sant Gervasi de Cassoles 66,41.406,2.138
La Torre Blanca,otro,Pg Til·lers 1,41.389,2.119
Pilar d'Aigua de Sant Andreu,otro,C Llenguadoc 95,41.43,2.185
La Plaça de les Havaneres,otro,C Jordi de Sant Jordi 5,41.421,2.183
'La Masia' del Barça,otro,Av Joan XXIII 2,41.382,2.122
Vivendes del Congrés Eucarístic,otro,Pl Congrés Eucarístic 7,41.426,2.182
Antiga Biblioteca Infantil del GATCPAC,otro,Pl Palmeres 2,41.432,2.186
Parc d'Atraccions del Tibidabo,Parc,Plaça del Tibidabo 3,41.422,2.119
Centre Cultural La Farinera del Clot,Centre,Gran Via de les Corts Catalanes 837,41.405,2.188
Places de Joaquim Folguera i Frederic Soler,otro,Pl Joaquim Folguera nan,41.405,2.139
El Conjunt Residencial de Les Escales Park,otro,C Sor Eulàlia d'Anzizu 38,41.392,2.115
El passatge de Tubella,otro,Ptge Tubella 1,41.384,2.136
Colònia Carné,otro,Av Sant Ramon Nonat 22,41.377,2.117
La plaça de Pedralbes,otro,Pl Pedralbes nan,41.396,2.114
Herboristeria del Rei,otro,Vidre 1,41.381,2.175
L'Auditori de Barcelona,otro,Carrer de Lepant 150,41.399,2.185
Hotel Melia Barcelona Sky  HB004358,otro,C Pere IV 272,41.406,2.201
Casa Carreras,otro,Av Pearson 14,41.394,2.109
La plaça del Monestir,otro,Pl Monestir nan,41.396,2.113
Parc de Diagonal Mar,Parc,Carrer de Llull 356,41.408,2.212
La Porta Est de la Finca Güell,otro,Av Joan XXIII 27,41.386,2.122
Centre Cívic Sarrià,Centre,Carrer d'Eduardo Conde 22,41.394,2.121
Edifici de la Fàbrica Moritz  Espai Gastronòmic i Cultural,otro,Rda Sant Antoni 39,41.383,2.163
Parc del Centre del Poblenou,Centre,Av Diagonal 130,41.407,2.2
Centre Penitenciari Obert 2   Presó de Dones de la Trinitat,Centre,C Pare Manjón 2,41.454,2.191
Parc de la Primavera,Parc,C Nou de la Rambla 203,41.37,2.166
Casa Vilabella,otro,C Astúries 65,41.404,2.156
Edifici Modernista Francisco Giner 47,otro,C Francisco Giner 47,41.4,2.158
Edifici d'Habitatges Gran de Gràcia 138,otro,C Gran de Gràcia 138,41.402,2.153
Ermita de la Mare de Déu de la Salut,otro,C Mare de Déu de la Salut 55,41.412,2.157
Fàbrica Artés,otro,C Venus 8,41.4,2.162
La plaça de Gal·la Placídia,otro,Pl Gal·la Placídia 1,41.399,2.153
Reial Acadèmia de Medicina de Catalunya,otro,C Carme 47,41.382,2.169
Centre Cívic Casa Orlandai,Centre,Carrer de Jaume Piquet 23,41.398,2.125
Pavelló Mies van der Rohe,otro,Avinguda de Francesc Ferrer i Guàrdia 7,41.371,2.15
Parròquia de Sant Gregori Taumaturg,Parròquia,Pl Sant Gregori Taumaturg nan,41.394,2.138
Casal de Barri Pou de la Figuera,otro,Carrer de Sant Pere Més Baix 70,41.388,2.179
Centre Cultural Teresa Pàmies,Centre,C Comte d'Urgell 145,41.387,2.152
Esplai Tr3smon,otro,C Mare de Déu de Port 279,41.36,2.142
Plaça de la Mercè,otro,Plaça de la Mercè 1,41.379,2.18
Hotel W Barcelona  HB004411 *Edifici Vela,otro,Pl Rosa dels Vents 1,41.368,2.19
Cereria Subirà,otro,Bda Llibreteria 7,41.384,2.178
Espai Jove La Fontana,otro,Carrer Gran de Gràcia 190,41.403,2.152
Jardins dels Drets Humans,Jardins,C Foneria 19,41.361,2.137
Església del Reial Santuari de Sant Josep de la Muntanya,otro,Av Santuari St Josep Muntanya 25,41.41,2.154
Associació Xarxa de Consum Solidari,otro,Plaça de Sant Agustí Vell 15,41.388,2.181
Mercat Encants Barcelona  Fira de Bellcaire,Mercat,Carrer de los Castillejos 158,41.401,2.186
Cementiri Les Corts,Cementiri,Avinguda de Joan XXIII 3,41.383,2.122
Cementiri Sarrià,Cementiri,Camí del Cementiri de Sarrià 10,41.401,2.128
Cementiri Poblenou,Cementiri,Avinguda d'Icària 204,41.395,2.201
Col·legi de Censors Jurats de Comptes de Catalunya,otro,C Sor Eulàlia d'Anzizu 41,41.39,2.113
Biblioteca Jaume Fuster,otro,Plaça de Lesseps 20,41.407,2.15
Torre Jussana  Centre de Serveis a les Associacions,Centre,Av Cardenal Vidal Barraquer 30,41.43,2.151
Acàdemia Blancafort  Antiga Editorial Seguí,otro,C Torrent de l'Olla 9,41.399,2.161
Can Pardal,otro,C Montseny 49,41.403,2.156
Edifici d'habitatges Gran de Gràcia 74*76,otro,C Gran de Gràcia 74,41.4,2.155
Eix Comercial del Raval,destacat,C Nou de la Rambla 14,41.379,2.174
Escola d'Aprenents SEAT,Escola,Pg Zona Franca 53,41.354,2.143
Mercat Concepció,Mercat,Carrer d'Aragó 311,41.396,2.169
Mercat Sant Antoni,Mercat,Carrer del Comte d'Urgell 1,41.38,2.162
Mercat Les Corts,Mercat,Travessera de les Corts 215,41.384,2.13
Mercat Galvany,Mercat,Carrer de Santaló 65,41.397,2.144
Espai Bombers Parc de la Prevenció de Barcelona,Parc,C Lleida 30,41.374,2.155
Mooby Bosque Multicines,otro,Rambla de Prat 16,41.401,2.152
Masia Can Fargas,otro,Pg Maragall 383,41.428,2.164
Carrer Gran de Sant Andreu,otro,C Malats 26,41.436,2.19
Foment Republicà de Sants. Antic Ateneu Batllori,otro,C Cros 7,41.375,2.138
Gran Teatre del Liceu,otro,C la Rambla 51,41.38,2.173
Telefèric de Montjuïc,destacat,Av Miramar 20,41.369,2.163
El passeig de Sant Joan,otro,Pg Sant Joan 118,41.401,2.169
La plaça de la Vila de Gràcia,otro,Pl Vila de Gràcia 3,41.4,2.158
El Congrés i els Indians,otro,C Pinar del Río 56,41.423,2.18
El Quadrat d'Or,otro,C Consell de Cent 353,41.392,2.166
El 22@,otro,C Roc Boronat 113,41.402,2.195
L'Estació de La Sagrera,otro,C Hondures 76,41.422,2.187
Plaça del Nen de la Rutlla,otro,Pl Nen de la Rutlla 9999,41.419,2.172
La Muralla Romana,otro,Pl Ramon Berenguer el Gran 3,41.384,2.178
Casa Granell *Girona,otro,C Girona 122,41.397,2.168
Casa CasasCarbó,otro,Pg Gràcia 96,41.395,2.161
Casa Antoni Costa,otro,Rbla Catalunya 122,41.395,2.158
Casa Comas d' Argemir,otro,Av República Argentina 92,41.411,2.146
Plaça de la Virreina,otro,Pl Virreina 3,41.405,2.157
Plaça del Nord,otro,Pl Nord 3,41.407,2.155
Monestir de Sant Pau del Camp,otro,C Sant Pau 99,41.377,2.169
Edifici de l'Antic Hospital de la Santa Creu,otro,C Hospital 56,41.381,2.17
Jardí Botànic de Barcelona,otro,Carrer del Doctor Font i Quer 2,41.364,2.159
Casa Juncosa,otro,Rbla Catalunya 78,41.392,2.162
Cases Pascual i Pons,otro,Pg Gràcia 2,41.388,2.17
El passatge de Mallofré,otro,Ptge Mallofré 2,41.399,2.122
La plaça de Sant Vicenç,otro,Pl Sant Vicenç de Sarrià 1,41.397,2.124
Plaça de Rovira i Trias,otro,Pl Rovira i Trias 3,41.407,2.159
Plaça de la Revolució,otro,Pl Revolució de Setembre 1868 4,41.403,2.158
Casa Llorenç Camprubí,otro,C Casp 22,41.389,2.171
Forn Sarret,otro,C Girona 73,41.395,2.171
Casa Dolors Calm,otro,Rbla Catalunya 54,41.391,2.164
L'Anella Olímpica,otro,Av Estadi 44,41.366,2.153
La Zona Universitària,otro,C John M Keynes 4,41.386,2.117
El Campus Nord Ciutat Universitària,otro,C Jordi Girona 4,41.387,2.113
Centre Cívic Cotxeres de Sants,Centre,Carrer de Sants 79,41.375,2.137
Parc Torrent Maduixer,Parc,C Josep Garí 7,41.416,2.135
La Casa de l'Aigua,otro,C Garbí 2,41.453,2.188
Seu de l'Antiga Hidroelèctrica de Catalunya,otro,C Almogàvers 11,41.392,2.183
Parc de la Maquinista per les treballadores i els treballadors de la Maquinista,Parc,Passeig de l'Havana 2,41.436,2.196
Residència Salesiana Martí Codolar,otro,Av Cardenal Vidal i Barraquer 15,41.428,2.151
Fundació Privada Foto Colectania,otro,Pg Picasso 14,41.388,2.183
Antiga Foneria de Canons,otro,C Rambla 2,41.377,2.177
Carrer de la Riereta,otro,C Riereta 1,41.379,2.167
Casa Fàbrica VermellMartí,otro,C Jonqueres 10,41.388,2.174
El Passeig de les Aigües,otro,Ctra Aigües 211,41.414,2.119
Plaça Masadas,otro,Pl Masadas 1,41.425,2.19
Conjunt de Sant Martí de Provençals,otro,C Selva del Camp 2,41.421,2.197
Mural de la Memòria de Baró de Viver,otro,Pg Santa Coloma 98,41.448,2.198
Masia Can Rosés,otro,C Deu i Mata 49,41.388,2.135
El Vapor   Fàbrica Bonaplata,otro,C Tallers 75,41.385,2.167
Església Antic Institut Mental,otro,C Marie Curie 8,41.437,2.169
El Raval,destacat,Rbla Raval 37,41.378,2.17
Sant Antoni,otro,C Comte d'Urgell 7,41.38,2.162
La plaça d'Espanya,otro,Pl Espanya 4,41.374,2.149
El Poblesec,otro,C Blai 36,41.374,2.164
Les Corts,otro,Pl Concòrdia 2,41.387,2.132
Centre Cívic Pere Pruna,Centre,Carrer de Ganduxer 130,41.403,2.131
La Plaça dels Indians,otro,C Garcilaso 140,41.423,2.183
Carrer de les Monges,otro,C Monges 10,41.431,2.188
Mercat Llibertat,Mercat,Plaça de la Llibertat 27,41.4,2.154
Museu Etnològic i de Cultures del Món *Parc Montjuïc,Parc,Passeig de Santa Madrona 16,41.369,2.156
Filmoteca de Catalunya,otro,Plaça de Salvador Seguí 1,41.379,2.171
Parc de la Font del Racó,Parc,Av Tibidabo 72,41.416,2.131
Hospital Clínic i Provincial,otro,C Villarroel 170,41.39,2.152
Casa del Guarda   Espai d'Interpretació del Pantà de Vallvidrera,otro,Camí del Pantà 40,41.416,2.097
Floristeria Flora Miserachs,otro,C Avió Plus Ultra 21,41.401,2.121
Parròquia de Maria Reina,Parròquia,Av Esplugues 103,41.393,2.111
Casa Calvet,otro,C Casp 48,41.391,2.173
Escultura Pi i MargallLa República,otro,Pl de la República 1,41.438,2.174
Centre de Cultura Popular La Violeta de Gràcia,Centre,C Maspons 6,41.401,2.156
Jardins de Joan Maragall  Palauet Albéniz,Jardins,Av Estadi 69,41.367,2.157
Palau del Baró de Quadras,Palau,Av Diagonal 373,41.397,2.161
Casal Catòlic de Sant Andreu  Àntic Casino El Progrés,otro,C Pons i Gallarza 58,41.436,2.186
Reial Club Nàutic de Barcelona,Club,Moll Espanya 1,41.377,2.183
Museu Picasso,Museu,Carrer de Montcada 15,41.385,2.181
Col·legi d'Arquitectes de Catalunya,otro,Pl Nova 5,41.384,2.175
Antiga Fàbrica Can Batlló,otro,Gran Via de les Corts Catalanes 173,41.368,2.138
Centre Cívic El Coll  La Bruguera,Centre,Carrer de l'Aldea 15,41.419,2.15
IL3 Institut de Formació Contínua  Universitat de Barcelona,otro,C Ciutat de Granada 131,41.403,2.192
Església de Nostra Senyora de Pompeia,otro,Av Diagonal 450,41.396,2.158
Escultura Colles Sant Medir,otro,Pl Trilla 1,41.403,2.152
Sant Pau Recinte Modernista,otro,Carrer de Sant Antoni Maria Claret 167,41.412,2.176
Font Hércules,otro,Pg Sant Joan 152,41.402,2.166
Estació d'Autobusos Barcelona Nord,otro,C Alí Bei 80,41.394,2.182
Casa Llopis Bofill,otro,Bailèn 113,41.398,2.169
Residència Assistida per a Gent Gran Llars Mundet,otro,Pg Vall d'Hebron 171,41.436,2.147
Observatori Fabra,otro,Ctra Observatori Fabra 27,41.419,2.124
Associació Nou Barris Centre Comerç,Centre,C Pare Rodés 51,41.441,2.176
Reial Club de Polo de Barcelona,Club,Av Doctor Marañón 17,41.381,2.114
Jardins de Portolà,Jardins,C Portolà 5,41.411,2.143
Hospital  Sociosanitari Mutuam Güell,otro,C Mare de Déu de la Salut 49,41.411,2.157
Centre Moral i Instructiu de Gràcia,Centre,Carrer de Ros de Olano 9,41.401,2.155
Parròquia de la Verge de Gràcia i Sant Josep,Parròquia,Pl Lesseps 25,41.407,2.149
Escola Massana Centre Municipal d'Art i Disseny,Centre,Plaça de la Gardunya 9,41.381,2.171
Centre de Reunions i Convencions UAB Casa Convalescència,Centre,C Sant Antoni Maria Claret 171,41.414,2.177
Parc Científic de Barcelona,Parc,Carrer de Baldiri Reixac 4,41.382,2.116
Estació de França,otro,Avinguda del Marquès de l'Argentera 6,41.384,2.187
Viaducte de Bellesguard,otro,C Bellesguard 16,41.409,2.127
Centre Cívic  Vil·la Urània,Centre,Carrer de Saragossa 29,41.401,2.15
Platja de la Nova Mar Bella,Platja,Pg Marítim de la Mar Bella 128,41.401,2.214
Torre del Fang,otro,Clot 228,41.417,2.192
Bar Marsella,otro,C Sant Pau 65,41.378,2.171
Torre Montjuïc Calatrava,destacat,Pg Minici Natal 8,41.365,2.152
Associació Sarrià Eix Comercial,otro,C Canet 20,41.398,2.123
Casal Cívic i Comunitari Barcelona  Magòria,otro,G.V. Corts Catalanes 247,41.37,2.141
Monument a Josep Tarradellas,otro,Avinguda de Josep Tarradellas nan,41.387,2.143
Jardins Creu de Pedralbes,Jardins,Av Pearson 2,41.394,2.112
Pèrgola Fotovoltaica al Parc del Fòrum,Parc,Pl Fòrum 1,41.412,2.228
Jardins del Teatre Grec,Jardins,Pg Santa Madrona 38,41.37,2.159
Parc de la Barceloneta,Parc,Passeig Marítim de la Barceloneta  Oriol Bohigas 15,41.382,2.194
Universitat Politècnica de Catalunya,otro,C Jordi Girona 31,41.389,2.117
Parc de Recerca Biomèdica de Barcelona,Parc,C Doctor Aiguader 88,41.386,2.194
Moll de la Fusta,otro,Moll de Bosch i Alsina 1,41.379,2.182
Jardins Mossèn Cinto Verdaguer,Jardins,Av Miramar 30,41.369,2.163
Jardins,Jardins,Pg Vall d'Hebron 171,41.436,2.141
Escullera del Port de Barcelona,otro,Pg Escullera 1,41.358,2.179
Associació Eix Comercial de Sant Andreu,otro,Carrer de Mateu Ferran 4,41.435,2.189
Reials Drassanes de Barcelona,otro,Av Drassanes 1,41.376,2.176
Museu d'Art Contemporani de Barcelona,Museu,Plaça dels Àngels 1,41.383,2.168
Palau Sant Jordi,Palau,Pg Olímpic 5,41.362,2.152
Antiga Subcentral Elèctrica de la Barceloneta,destacat,C Atlàntida 57,41.379,2.19
Camp Municipal de Futbol Narcís Sala,otro,C Santa Coloma 39,41.429,2.193
Museu Barça Immersive Tour,Museu,Carrer d'Arístides Maillol 12,41.379,2.12
Torre d'Aigües de Carrasco i Formiguera,otro,Via Augusta 356,41.401,2.123
Torre del Doctor Andreu,otro,Av Tibidabo 17,41.412,2.136
Colònia Castells,otro,C Castells 2,41.388,2.139
La plaça de Comas,otro,Pl Comas 18,41.386,2.13
La plaça de la Reina Maria Cristina,otro,Pl Reina Maria Cristina nan,41.389,2.127
La plaça de Ramon M. Roca i Sastre,otro,Pl Ramon M. Roca Sastre nan,41.386,2.119
Jardins de Vil·la Cecília,Jardins,Santa Amèlia 1,41.394,2.122
Centre d'Educació Ambiental La Fàbrica del Sol,Centre,Pg Salvat Papasseit 1,41.383,2.191
Pilar d'Aigua de la Sagrera,otro,C Ciutat d'Elx 31,41.422,2.191
La Plaça del Rom Cremat,otro,C Jordi de Sant Jordi 16,41.422,2.183
La Plaça del Mercadal,otro,Pl Mercadal 35,41.435,2.189
L'Espai de la Torre Melina i el seu Jardí Romàntic,otro,C Torre Melina 8,41.382,2.109
Avenç Obrer Català de Sant Andreu,otro,Pl Orfila 3,41.436,2.191
Centre Comercial El Centre de la Vila,Centre,C Salvador Espriu 61,41.391,2.198
Memorial en Record de les Víctimes de Trànsit,otro,Passeig Marítim del Bogatell 82,41.395,2.207
Castell dels Tres Dragons,otro,Pg Picasso 5,41.388,2.183
Parròquia de Sant Josep Manyanet,Parròquia,C Sant Sebastià 47,41.429,2.191
Centre Cívic Sant Andreu,Centre,Carrer Gran de Sant Andreu 111,41.431,2.189
Palau de Mar,Palau,Pl Pau Vila 1,41.381,2.186
Quarter Bruc,otro,Av Exèrcit 1,41.387,2.111
Mercat Núria,Mercat,Avinguda dels Rasos de Peguera 186,41.46,2.173
Edifici de La Model,otro,Carrer d'Entença 155,41.383,2.145
Can Mazantini,otro,C Coroleu 73,41.433,2.185
Casa Fargas,otro,Rbla Catalunya 47,41.39,2.164
Ateneu Popular de Sants,otro,Premià 15,41.377,2.139
Parc de les Cascades,Parc,Avinguda del Litoral 12,41.386,2.195
Centre Cívic Can Felipa,Centre,Plaça de Josep Maria Huertas Claveria 1,41.404,2.201
La Plaça Reial,otro,Pl Reial 5,41.38,2.175
Casa Planells,otro,Av Diagonal 332,41.401,2.175
Escola la Farigola de Vallcarca,Escola,C Sant Camil 31,41.414,2.147
Antiga Fàbrica Estrella Damm,otro,Carrer del Rosselló 515,41.409,2.178
Facultat de Ciències de la Salut Blanquerna  URL,otro,C Padilla 326,41.41,2.172
Parròquia de Santa Maria del Mar  Basílica,Parròquia,Pl Santa Maria 1,41.384,2.182
Jardins del Mirador de l'Alcalde,Jardins,Carretera de Montjuïc 41,41.367,2.169
El Portal de l'Àngel,otro,Av Portal de l'Àngel 21,41.386,2.173
Zoo de Barcelona,otro,Parc Ciutadella nan,41.386,2.187
Casa Vidal,otro,C Pons i Gallarza 1,41.435,2.189
El Paral·lel,otro,Av Paral·lel 170,41.375,2.156
Sant Pere i Santa Caterina,otro,C Sant Pere Més Baix 68,41.388,2.179
Teatre Lliure,otro,Pl Margarida Xirgu 1,41.371,2.157
Parc de Sant Martí,Parc,C Menorca 64,41.42,2.198
Casa Bartomeu,otro,C Rábida 5,41.396,2.107
Edifici La Maternitat,otro,C Sabino Arana 1,41.385,2.127
Parc Sanitari Pere Virgili,Parc,C Esteve Terradas 30,41.415,2.14
Edifici Talaia Barcelona,otro,Av Sarrià 71,41.391,2.139
Edifici Torre Telefònica  Diagonal Zero Zero,otro,Pl Ernest Lluch i Martín 5,41.412,2.221
Centre Estudis Ignasi Iglesias,Centre,Carrer d'Ignasi Iglésias 33,41.434,2.188
Universitat Internacional de Catalunya,otro,Immaculada 22,41.406,2.123
Palau Reial de Pedralbes,Palau,Av Diagonal 686,41.387,2.118
Jardins de Mossèn Costa i Llobera,Jardins,Ctra Miramar 38,41.37,2.172
Castell de Torre Baró,otro,Carretera Alta de les Roquetes 309,41.451,2.176
Casa  Fàbrica Erasme de Gònima,otro,Carme 106,41.38,2.167
El Túnel de la Rovira,otro,C Dante Alighieri 81,41.428,2.158
Can Culleretes,otro,C Quintana 5,41.381,2.174
La Diagonal,otro,Av Diagonal 629,41.388,2.126
Refugi Antiaeri de La Lira,otro,C Coroleu 15,41.433,2.188
Refugi Antiaeri 977 Matanzas / Pinar del Río,otro,C Pinar del Río 32,41.422,2.182
Capella dels Segadors,otro,Pl Orfila 5,41.436,2.191
MUHBA Museu d'Història de Barcelona  Vil·la Joana,Museu,Carretera de l'Església 104,41.42,2.1
Platja de la Barceloneta,Platja,Passeig Marítim de la Barceloneta  Oriol Bohigas 14,41.379,2.192
Centre de Cultura Contemporània de Barcelona,Centre,C Montalegre 5,41.384,2.167
Fàbrica de Creació La Escocesa,otro,Carrer de Pere IV 345,41.411,2.204
Centre d'Arts Santa Mònica,Centre,Carrer la Rambla 7,41.377,2.176
Casa Fàbrica GüellRamis,otro,C Còdols 16,41.38,2.178
Casa Parés,otro,C Mestres Casals i Martorell 15,41.387,2.178
Restaurant Can Cortada,Restaurant,Av Estatut de Catalunya 88,41.438,2.153
Centre Comercial L'Illa Diagonal,Centre,Av Diagonal 557,41.39,2.135
Els Edificis Trade,otro,G.V. Carles III 84,41.386,2.128
Far del Port  Torre del Rellotge,otro,Moll Pescadors 1,41.376,2.187
Fundació Privada Centre de Producció Artística i Cultural Palo Alto,Centre,C Pellaires 30,41.405,2.21
Centre Educatiu Santa Teresa  Ganduxer,Centre,C Ganduxer 85,41.4,2.134
Parc del Mirador del Poblesec,Parc,Passeig de Montjuïc 59,41.372,2.17
Molí de Sant Andreu  Rec Comtal,otro,C Andana de l'Estació 22,41.443,2.194
Casa Company,otro,Buenos Aires 56,41.393,2.148
La Plaça del Comerç,otro,Pl Comerç 6,41.435,2.19
Associació Sant Martí Eix Comercial,otro,Carrer de Huelva 111,41.42,2.2
La Vil·la Hèlius Casa Grané,otro,C Panamà 13,41.395,2.108
L'Antic Institut Frenopàtic,otro,C Mejía Lequerica 55,41.384,2.126
L'Àrea Olímpica de la Diagonal,otro,Av Xile 29,41.38,2.114
Bar musical La Torre Rosa,otro,C Francesc Tàrrega 22,41.423,2.181
Carrer Cienfuegos,otro,C Cienfuegos 21,41.424,2.183
Refugi Antiaeri de la Plaça del Diamant,otro,Pl Diamant 10,41.404,2.156
Colmado Murria,otro,Roger de Llúria 85,41.395,2.167
Fàbrica de Creació Nau Ivanow,otro,C Hondures 28,41.42,2.19
Casa Museu Gaudí,Museu,Carretera del Carmel 23,41.415,2.155
Centre Comercial Diagonal Mar,Centre,Av Diagonal 3,41.41,2.216
Oratori de Sant Felip Neri *Gràcia,otro,C Sol 8,41.402,2.156
Jardins de Massana,Jardins,Felip II 216,41.427,2.179
Associació Sants Establiments Units,otro,Carrer d'Alcolea 16,41.376,2.137
Port Olímpic de Barcelona,otro,Port Olímpic 100,41.388,2.199
La Lleialtat Santsenca,otro,Carrer d'Olzinelles 31,41.373,2.137
Casa Josep Barnoles  La del Mico i el Gos,otro,C Camèlies 40,41.412,2.16
La rambla del Prat,otro,Rbla Prat 1,41.402,2.153
Masoveria de la Virreina,otro,C Sant Lluís 1,41.404,2.158
La plaça del Poble Romaní,otro,Plaça del Poble Gitano nan,41.402,2.161
Hospital Evangèlic,otro,Carrer de la Ciutat de Granada 108,41.401,2.194
Cases Antoni Par,otro,C Gran de Gràcia 262,41.406,2.151
Cases de menestrals,otro,C Tordera 14,41.401,2.16
Cases Folguera,otro,Trav Gràcia 184,41.402,2.159
Edifici Modernista Avinguda República Argentina 28,otro,Av República Argentina 28,41.408,2.147
El carrer de Bonavista,otro,C Bonavista 1,41.398,2.159
El Vapor Nou,otro,Plaça del Poble Gitano nan,41.402,2.161
Bar Mestres,otro,C Vergós 9,41.4,2.131
Edifici MediaTIC,otro,Carrer de Roc Boronat 117,41.403,2.194
La Plaça de Sant Jaume,otro,Pl Sant Jaume 1,41.383,2.177
Torre de la Catalana de Gas,otro,Passeig Marítim de la Barceloneta  Oriol Bohigas 15,41.382,2.194
Elisava Escola Universitaria de Disseny i Enginyeria de Barcelona,Escola,C la Rambla 30,41.378,2.176
Casa MuleyAfid,otro,Pg Bonanova 55,41.404,2.129
Casa Vilaró,otro,Av Coll del Portell 43,41.411,2.151
Residència Assistencial per a Gent Gran Refugi d'Obreres,otro,Av República Argentina 16,41.408,2.148
Hort Urbà Masia Can Soler,otro,Ctra Sant Cugat 114,41.425,2.131
Associació de Botiguers i Professionals Eix Maragall,otro,Rambla de la Muntanya 5,41.422,2.178
Parròquia de Sant Pacià,Parròquia,C Monges 27,41.432,2.188
Casa Comalat,otro,Av Diagonal 442,41.397,2.161
Farmàcia Reixachde Pablo,otro,Carrer Gran de Sant Andreu 263,41.436,2.19
Club Tennis Barcino,Club,Plaça de Narcisa Freixas 2,41.408,2.138
Oasi MAC,otro,Carrer del Consell de Cent 140,41.382,2.154
MUHBA Museu d'Història de Barcelona   Refugi 307,Museu,Carrer Nou de la Rambla 175,41.371,2.166
Associació Catalana per la Integració i el Desenvolupament Humà,otro,Carrer de Siracusa 53,41.402,2.161
La Rambla,otro,C Rambla 10,41.378,2.176
Masia la Petita Maria,otro,C López Catalán 4,41.376,2.137
La plaça de Sant Gaietà,otro,Pl Sant Gaietà 5,41.4,2.12
Plaça del Sol,otro,Pl Sol 6,41.402,2.157
El carrer de Campoamor,otro,C Campoamor 4,41.433,2.158
Platja de Llevant,Platja,Av Litoral 114,41.405,2.218
Casa Barangé,otro,Pl Mons 4,41.413,2.144
Casa Josep Castelló,otro,C Sors 23,41.409,2.158
Casa Martí Trias i Domènech,otro,C Olot 5,41.414,2.153
Plaça del Rei,otro,Pl Rei 1,41.384,2.177
Drogueria Rovira Antiga Drogueria Galvany,otro,Madrazo 127,41.397,2.145
Espai Gaudí: Pis Golfes i Terrat,otro,Provença 261,41.395,2.162
Torre de les Aigües del Besòs,otro,Plaça de Ramon Calsina 1,41.405,2.213
Cafeteria Restaurant Cafè de l'Òpera,Restaurant,Carrer la Rambla 74,41.381,2.174
BAU Centre Universitari d'Arts i Disseny de Barcelona,Centre,C Pujades 118,41.398,2.196
Centre de Convencions Internacional de Barcelona,Centre,Plaça de Willy Brandt 11,41.409,2.219
Estació BarcelonaSants de RENFE,otro,Pl Països Catalans 1,41.38,2.141
Club Natació Catalunya,Club,Carrer d'Ana María Matute Ausejo 25,41.415,2.158
Santuari de Santa Eulàlia de Vilapicina,otro,C Pere d'Artés 2,41.431,2.173
Sarrià,otro,C Major de Sarrià 63,41.398,2.122
La Sardineta. Grup d'Ecoconsum de la Barceloneta,destacat,C Cermeño 7,41.382,2.191
L'Hortet del Forat,otro,C Pou de la Figuera 1,41.387,2.18
El Pla de Palau,Palau,Pla Palau 1,41.383,2.183
Masia Can Valent,otro,Av Rio de Janeiro 51,41.436,2.18
Centre Cívic Can Verdaguer,Centre,Carrer de Piferrer 94,41.434,2.179
Kasa de la Muntanya KM,otro,Av Santuari St Josep Muntanya 19,41.41,2.154
Àntiga Fàbrica de Làmpades Z,otro,Pg Zona Franca 185,41.361,2.138
CaixaForum Barcelona,otro,Avinguda de Francesc Ferrer i Guàrdia 6,41.371,2.15
Biblioteca Clarà,otro,Carrer del Doctor Carulla 22,41.4,2.129
La Plaça de Catalunya,otro,Pl Catalunya 2,41.386,2.169
Mercat Horta,Mercat,Carrer de Lisboa 34,41.429,2.157
Cementiri Montjuïc,Cementiri,Carrer de la Mare de Déu de Port 56,41.354,2.149
Associació del Passeig de Gràcia,otro,Carrer de Mallorca 249,41.393,2.161
Hotel d'Entitats de Can Guardiola,otro,Cuba 2,41.43,2.189
Centre Cívic Can Basté,Centre,Passeig de Fabra i Puig 274,41.43,2.173
El passatge d'Antoni Gassol,otro,Ptge Antoni Gassol 1,41.413,2.196
Pla de la Seu,otro,Pla de la Seu 1,41.384,2.176
L'Hort del Cànem,otro,Carrer de la Llacuna 31,41.399,2.201
Parròquia de Sant Genís dels Agudells,Parròquia,C Saldes 3,41.428,2.137
Parc del Clot,Parc,Escultors Claperós 55,41.408,2.19
Sant Andreu Teatre,otro,C Neopàtria 54,41.431,2.189
Centre Cívic Torre Llobeta,Centre,Carrer de Santa Fe 2,41.427,2.174
Fàbrica de Creació Ateneu Popular 9 Barris,otro,C Portlligat 11,41.449,2.18
Parc de les Aigües,Parc,Pl Alfons el Savi 3,41.414,2.165
Parc de la Guineueta,Parc,Plaça de la República 9,41.439,2.174
Museu Marítim de Barcelona,Museu,Avinguda de les Drassanes 1,41.376,2.176
Monestir de Santa Maria de Valldonzella,otro,C Císter 41,41.412,2.131
Palau Montaner,Palau,C Mallorca 278,41.396,2.165
Palau Macaya,Palau,Pg Sant Joan 108,41.4,2.169
Palau Robert  Centre d'Informació de Catalunya,Centre,Pg Gràcia 107,41.396,2.16
Fundació Universitaria Agustí Pedro Pons,otro,Av Vallvidrera 25,41.407,2.114
El Born Centre de Cultura i Memòria,Centre,Plaça Comercial 12,41.386,2.184
Casa Thomas,otro,Mallorca 291,41.397,2.166
Can Fabra,otro,Plaça de Can Fabra 1,41.435,2.191
Club Natació Sant Andreu,Club,Rbla Fabra i Puig 47,41.43,2.186
Antiga Seu Editorial Gustavo Gili,otro,Rosselló 87,41.386,2.148
Parròquia de Santa Maria del Pi  Basílica,Parròquia,Pl Pi 7,41.382,2.174
Parròquia de Santa Maria del Remei,Parròquia,Pl Concòrdia 1,41.387,2.132
Parròquia de Maria Auxiliadora,Parròquia,Pg Sant Joan Bosco 70,41.395,2.128
Club Esportiu Europa,Club,Carrer de Pau Alsina 138,41.412,2.16
Museu d'Arqueologia de Catalunya,Museu,Passeig de Santa Madrona 39,41.37,2.158
Biblioteca Barceloneta   La Fraternitat,destacat,Carrer de Felícia Fuster i Viladecans 8,41.379,2.189
Palau de la Virreina,Palau,la Rambla 99,41.383,2.172
Associació de Comerciants i Veïns de Creu Coberta,otro,C Callao 9,41.376,2.143
Parròquia de Sant Medir,Parròquia,C Constitució 17,41.37,2.138
Obelisc del Cinc d'Oros,otro,Pl Joan Carles I 9999,41.397,2.16
Funicular de MontjuïcTMB,destacat,Av Paral.lel 59,41.375,2.17
Espai Subirachs  Poblenou,otro,Carrer de Batista 6,41.404,2.2
Impremta Baltasar,otro,Gran de Sant Andreu 152,41.432,2.189
L'Aqüeducte de Ciutat Meridiana,otro,Av Rasos de Peguera 53,41.46,2.175
El barri del Bon Pastor,otro,C Estadella 65,41.435,2.205
El Campus de Comunicació,otro,Carrer de Roc Boronat 134,41.404,2.194
Masia Torre Rodona  Can Vinyals de la Torre,otro,C Doctor Salvador Cardenal 7,41.386,2.124
Ateneu d'Innovació Digital i Democràtica  Canòdrom,otro,C Concepción Arenal 165,41.427,2.184
Parc de Cervantes,Parc,Av Diagonal 706,41.385,2.109
Ca l'Artés,otro,C Pere d'Artés 8,41.431,2.173
Plaça Eivissa,otro,Pl Eivissa 1,41.43,2.161
Casa Estapé,otro,Pg Sant Joan 6,41.392,2.18
Cases Rocamora,otro,Pg Gràcia 6,41.389,2.169
Casa Malagrida,otro,Pg Gràcia 27,41.391,2.166
Forn de la Concepció,otro,C Girona 74,41.395,2.171
Casa Queraltó,otro,Rbla Catalunya 88,41.393,2.161
Casa Jaume Forn,otro,C València 285,41.395,2.167
Casa Santurce,otro,C València 293,41.396,2.167
Casa Granell *Balmes,otro,C Balmes 65,41.39,2.161
Casa Vallet i Xiró,otro,C Mallorca 302,41.397,2.167
El carrer de Canet,otro,C Canet 36,41.399,2.123
Dipòsit del Rei Martí,otro,C Bellesguard 14,41.409,2.127
Casa de la Marina,otro,Pg Joan Borbó Comte Barcelona 42,41.378,2.188
La carretera de les Aigües sector HortaGuinardó,otro,Ctra Aigües 361,41.421,2.132
L'Aqüeducte del Parc Central de Nou Barris,Parc,Pl Major de Nou Barris 1,41.437,2.171
Can Fontanet  Centre d'Interpretació dels Tres Tombs de Sant Andreu,Centre,C Sant Adrià 20,41.434,2.191
Carrer Aiguafreda,otro,C Aiguafreda 1,41.427,2.159
Casa Anoll,otro,C Josep Torres 2,41.4,2.161
Cases modernistes del carrer de Sants,otro,C Sants 211,41.375,2.133
El Rec Comtal,otro,C Oristà 16,41.465,2.186
Cases Barates del Bon Pastor,otro,C Bellmunt 28,41.438,2.206
Rambla de Fabra i Puig,otro,C Concepción Arenal 211,41.43,2.185
MUHBA Museu d'Història de Barcelona  Oliva Artés,Museu,Carrer d'Espronceda 142,41.408,2.201
Espai de Memòria de les Catorze Roses,otro,Av Diagonal 706,41.385,2.109
Pati Geològic,otro,C Martí i Franquès 2,41.384,2.12
Conjunt de Torretes al carrer Verdi,otro,C Verdi 144,41.407,2.153
El Canal de la Infanta,otro,C Mare de Déu de Port 56,41.354,2.149
Bodega Josefa,otro,C Saragossa 86,41.404,2.146
El camí de Finestrelles i el mirador,otro,Camí Finestrelles 2,41.387,2.101
El passeig de Sant Gervasi,otro,Pg Sant Gervasi 1,41.407,2.134
El Submarí de la Ronda,otro,C Isaac Newton 28,41.413,2.131
Cooperativa La Confiança Andreuenca,otro,C Pons i Gallarza 103,41.436,2.185
Cooperativa La Flor de Maig  sucursal núm. 7,otro,C Martí Molins 10,41.424,2.19
Museu d'Autòmats del Tibidabo,Museu,Pl Tibidabo 3,41.422,2.119
La plaça de la Bonanova,otro,Pl Bonanova nan,41.406,2.134
La plaça del Doctor Andreu,otro,Pl Doctor Andreu nan,41.416,2.131
Restaurant Bonanova,Restaurant,C Sant Gervasi de Cassoles 103,41.406,2.135
Avinguda de la Catedral,otro,Avinguda de la Catedral 1,41.385,2.175
Avinguda Maria Cristina,otro,Avinguda de la Reina Maria Cristina 1,41.373,2.151
Carrer Martí  i Franqués,otro,Carrer de Martí i Franquès 1,41.385,2.118
Hotel España  HB000073,otro,C Sant Pau 9,41.38,2.173
Plaça dels Àngels,otro,Plaça dels Àngels 1,41.383,2.168
Ronda de Sant Antoni,otro,Ronda de Sant Antoni 1,41.379,2.163
Antiga Estació de Rodalies Sant Andreu Comtal de RENFE,otro,Plaça de l'Estació 1,41.436,2.192
Casa Batlló,destacat,Pg Gràcia 43,41.392,2.165
Teatre Coliseum,otro,G.V. Corts Catalanes 595,41.388,2.166
Biblioteca Vapor Vell,otro,Passatge del Vapor Vell 1,41.377,2.135
Pavellons d'Entrada de l'Antiga Finca Güell,otro,Avinguda de Pedralbes 7,41.388,2.121
Moll de la Fusta *Escenari Besòs,otro,Moll de Bosch i Alsina 1,41.379,2.182
Moll de la Fusta *Escenari Llobregat,otro,Moll de Bosch i Alsina 1,41.379,2.182
Refugi antiaeri 292 carrer Piquer del Poblesec,otro,Carrer de Piquer 44,41.374,2.168
Passeig Lluis Companys  Arc de Triomf,otro,Passeig de Lluís Companys 9,41.39,2.181
Hotel Casa Fuster  HB004219,otro,Pg Gràcia 132,41.398,2.158
Jardins del Rector Oliveras,Jardins,Passatge del Rector Oliveras 2,41.395,2.168
Carrer Menéndez Pelayo,otro,Carrer de Menéndez y Pelayo 2,41.384,2.12
Restaurant El Asador de Aranda *Av Tibidabo,Restaurant,Av Tibidabo 31,41.413,2.134
OikoCrèdit Catalunya,otro,C Casp 43,41.392,2.174
Farmàcia Guinart Gómez de Arteche,otro,Carrer Gran de Sant Andreu 306,41.437,2.19
Centre Educatiu Monlau Sagrera,Centre,C Monlau 2,41.423,2.191
Palau de Congressos de Catalunya,Palau,Av Diagonal 661,41.384,2.11
Museu de Cera de Barcelona,Museu,Passatge de la Banca 5,41.377,2.177
Casa Serra,otro,Rbla Catalunya 126,41.396,2.158
Escola Superior de Música de Catalunya,Escola,C Padilla 155,41.399,2.185
Clínica Sant Jordi,otro,Pl Estació 12,41.437,2.193
Escola Superior de Disseny IED Barcelona,Escola,Carrer de Biada 11,41.405,2.155
Pla de l'Os  La Rambla,otro,Pla de la Boqueria 1,41.381,2.173
Farmàcia Franquesa Grau,otro,Carrer Gran de Sant Andreu 260,41.435,2.19
Fundació Joan Brossa,otro,Carrer de Flassaders 40,41.385,2.182
Edifici de La Caixa de Barcelona,otro,C Gran de Gràcia 18,41.398,2.157
Metro Fontana,otro,C Gran de Gràcia 170,41.403,2.153
La plaça d'en Joanic,otro,Pl Joanic nan,41.405,2.162
Mirador Joan Sales i Vallès,otro,Mirador de Joan Sales 0,41.416,2.153
Casa Rubinat,otro,C Or 44,41.405,2.158
Casa Tomàs Valls,otro,C Mare de Déu de la Salut 31,41.411,2.156
Edifici Modernista Riera de Sant Miquel 44,otro,C Riera de Sant Miquel 44,41.398,2.156
Parròquia rural de Santa Maria de Vallvidrera,Parròquia,Carretera de l'Església 93,41.419,2.099
Parc de Montjuïc,Parc,Pg Migdia 147,41.361,2.16
Platja de l'Espigó del Gas,Platja,Passeig Marítim de la Barceloneta  Oriol Bohigas nan,41.382,2.194
Parc Metropolità Collserola,Parc,Ctra Església 92,41.421,2.1
